0 FENGYUN 1C DEB
1 31348U 99025BRC 13284.04312793  .00001608  00000-0  82386-3 0  5510
2 31348 099.0755 011.6833 0040036 157.4595 327.4034 14.16532429331868
0 FENGYUN 1C DEB
1 31348U 99025BRC 13286.09069567  .00001451  00000-0  74555-3 0  5521
2 31348 099.0756 013.7706 0040104 151.7806 328.9009 14.16538610332158
0 FENGYUN 1C DEB
1 31348U 99025BRC 13288.48073212  .00002010  00000-0  10236-2 0  5536
2 31348 099.0754 016.2072 0040138 145.1124 276.9017 14.16548617332493
0 FENGYUN 1C DEB
1 31348U 99025BRC 13291.10520880  .00001787  00000-0  91223-3 0  5544
2 31348 099.0749 018.8828 0040191 137.8116 340.5186 14.16557745332860
0 FENGYUN 1C DEB
1 31348U 99025BRC 13293.49633340  .00001888  00000-0  96247-3 0  5558
2 31348 099.0746 021.3204 0040206 131.1900 294.1893 14.16566885333202
0 FENGYUN 1C DEB
1 31348U 99025BRC 13296.05034957  .00002024  00000-0  10300-2 0  5561
2 31348 099.0746 023.9238 0040255 124.0698 358.6757 14.16577129333563
